{"fetched_at":"2026-03-30T06:02:59Z","count":15439,"tles":[{"name":"STARLINK-4270","line1":"1 52863U 22062AK  26087.87601134 -.00000282  00000+0  39183-6 0  9991","line2":"2 52863  53.2189 297.9923 0001471  90.4368 269.6793 15.08838413208821","category":"Starlink"}]}