{
  "norad_id": 52863,
  "name": "STARLINK-4270",
  "history": [
    {
      "epoch": "2026-03-28T21:01:27.379776",
      "apogee_km": 540.7662066055018,
      "perigee_km": 538.730272979431,
      "latitude_deg": -17.63142905043082,
      "longitude_deg": -89.60291135986336,
      "semi_major_axis_km": 6917.885239792466,
      "eccentricity": 0.00014715,
      "inclination_deg": 53.2189,
      "raan_deg": 297.9923,
      "arg_perigee_deg": 90.4368,
      "mean_anomaly_deg": 269.6793,
      "mean_motion_rev_day": 15.08838413
    }
  ]
}